GSAT0219 (GALILEO 23)
1 43566U 18060C   26187.86278952 -.00000071  00000+0  00000+0 0  9997
2 43566  57.1653 341.2551 0001764 304.6293  55.3544  1.70476064 49520
